{"type": "FeatureCollection", "features": [ {"type": "Feature", "properties": {"norad_id": 30527, "name": "FENGYUN 1C DEB", "group": "fengyun-1c-debris", "lat": 63.17316631480058, "lon": -139.59105983425613, "alt_km": 1355.0574567023987, "timestamp": "2025-12-02T06:27:53.290492+00:00", "meta": {"OBJECT_NAME": "FENGYUN 1C DEB", "OBJECT_ID": "1999-025AJR", "EPOCH": "2025-12-01T14:26:03.983136", "MEAN_MOTION": 13.30989351, "ECCENTRICITY": 0.04125167, "INCLINATION": 100.0646, "RA_OF_ASC_NODE": 19.1957, "ARG_OF_PERICENTER": 252.9034, "MEAN_ANOMALY": 266.536, "EPHEMERIS_TYPE": 0, "CLASSIFICATION_TYPE": "U", "NORAD_CAT_ID": 30527, "ELEMENT_SET_NO": 999, "REV_AT_EPOCH": 91208, "BSTAR": 0.0017691937, "MEAN_MOTION_DOT": 1.299e-05, "MEAN_MOTION_DDOT": 0}, "tle": {"line1": "1 30527U 99025AJR 25335.60143499  .00001299  00000+0  17692-2 0  9993", "line2": "2 30527 100.0646  19.1957 0412516 252.9034 266.5360 13.30989351912082"}}, "geometry": {"type": "Point", "coordinates": [-139.59105983425613, 63.17316631480058]}}, {"type": "Feature", "properties": {"norad_id": 30528, "name": "FENGYUN 1C DEB", "group": "fengyun-1c-debris", "lat": -67.74228609775435, "lon": 5.951910516531168, "alt_km": 752.0951318557072, "timestamp": "2025-12-02T06:27:53.290501+00:00", "meta": {"OBJECT_NAME": "FENGYUN 1C DEB", "OBJECT_ID": "1999-025AJS", "EPOCH": "2025-12-01T14:18:58.704192", "MEAN_MOTION": 14.13466327, "ECCENTRICITY": 0.01431852, "INCLINATION": 98.2386, "RA_OF_ASC_NODE": 206.0641, "ARG_OF_PERICENTER": 258.394, "MEAN_ANOMALY": 169.1569, "EPHEMERIS_TYPE": 0, "CLASSIFICATION_TYPE": "U", "NORAD_CAT_ID": 30528, "ELEMENT_SET_NO": 999, "REV_AT_EPOCH": 96980, "BSTAR": 0.00041481839, "MEAN_MOTION_DOT": 8.2e-06, "MEAN_MOTION_DDOT": 0}, "tle": {"line1": "1 30528U 99025AJS 25335.59651278  .00000820  00000+0  41482-3 0  9995", "line2": "2 30528  98.2386 206.0641 0143185 258.3940 169.1569 14.13466327969804"}}, "geometry": {"type": "Point", "coordinates": [5.951910516531168, -67.74228609775435]}}, {"type": "Feature", "properties": {"norad_id": 30529, "name": "FENGYUN 1C DEB", "group": "fengyun-1c-debris", "lat": -68.51986450958154, "lon": 57.03957288835793, "alt_km": 830.6937837027708, "timestamp": "2025-12-02T06:27:53.290511+00:00", "meta": {"OBJECT_NAME": "FENGYUN 1C DEB", "OBJECT_ID": "1999-025AJT", "EPOCH": "2025-11-29T05:27:15.583680", "MEAN_MOTION": 13.71563264, "ECCENTRICITY": 0.02312369, "INCLINATION": 98.4867, "RA_OF_ASC_NODE": 256.6436, "ARG_OF_PERICENTER": 258.7814, "MEAN_ANOMALY": 98.7267, "EPHEMERIS_TYPE": 0, "CLASSIFICATION_TYPE": "U", "NORAD_CAT_ID": 30529, "ELEMENT_SET_NO": 999, "REV_AT_EPOCH": 93823, "BSTAR": 0.0010152988, "MEAN_MOTION_DOT": 1.068e-05, "MEAN_MOTION_DDOT": 0}, "tle": {"line1": "1 30529U 99025AJT 25333.22726370  .00001068  00000+0  10153-2 0  9995", "line2": "2 30529  98.4867 256.6436 0231236 258.7814  98.7267 13.71563264938239"}}, "geometry": {"type": "Point", "coordinates": [57.03957288835793, -68.51986450958154]}}, {"type": "Feature", "properties": {"norad_id": 30530, "name": "FENGYUN 1C DEB", "group": "fengyun-1c-debris", "lat": -66.56376532996966, "lon": 34.820775489361836, "alt_km": 815.9662987582833, "timestamp": "2025-12-02T06:27:53.290521+00:00", "meta": {"OBJECT_NAME": "FENGYUN 1C DEB", "OBJECT_ID": "1999-025AJU", "EPOCH": "2025-12-01T02:29:24.806976", "MEAN_MOTION": 14.3675321, "ECCENTRICITY": 0.00997079, "INCLINATION": 98.398, "RA_OF_ASC_NODE": 13.7589, "ARG_OF_PERICENTER": 171.3566, "MEAN_ANOMALY": 214.2929, "EPHEMERIS_TYPE": 0, "CLASSIFICATION_TYPE": "U", "NORAD_CAT_ID": 30530, "ELEMENT_SET_NO": 999, "REV_AT_EPOCH": 98618, "BSTAR": 0.00028108117, "MEAN_MOTION_DOT": 8.34e-06, "MEAN_MOTION_DDOT": 0}, "tle": {"line1": "1 30530U 99025AJU 25335.10375934  .00000834  00000+0  28108-3 0  9992", "line2": "2 30530  98.3980  13.7589 0099707 171.3566 214.2929 14.36753210986187"}}, "geometry": {"type": "Point", "coordinates": [34.820775489361836, -66.56376532996966]}}, {"type": "Feature", "properties": {"norad_id": 30531, "name": "FENGYUN 1C DEB", "group": "fengyun-1c-debris", "lat": 63.59615909414968, "lon": 3.461855638560405, "alt_km": 693.5816947705289, "timestamp": "2025-12-02T06:27:53.290531+00:00", "meta": {"OBJECT_NAME": "FENGYUN 1C DEB", "OBJECT_ID": "1999-025AJV", "EPOCH": "2025-12-01T18:26:26.524320", "MEAN_MOTION": 14.61109313, "ECCENTRICITY": 0.0029778, "INCLINATION": 102.3096, "RA_OF_ASC_NODE": 156.6288, "ARG_OF_PERICENTER": 234.6827, "MEAN_ANOMALY": 125.1573, "EPHEMERIS_TYPE": 0, "CLASSIFICATION_TYPE": "U", "NORAD_CAT_ID": 30531, "ELEMENT_SET_NO": 999, "REV_AT_EPOCH": 97535, "BSTAR": 0.0046155, "MEAN_MOTION_DOT": 0.00022835, "MEAN_MOTION_DDOT": 0}, "tle": {"line1": "1 30531U 99025AJV 25335.76836255  .00022835  00000+0  46155-2 0  9999", "line2": "2 30531 102.3096 156.6288 0029778 234.6827 125.1573 14.61109313975358"}}, "geometry": {"type": "Point", "coordinates": [3.461855638560405, 63.59615909414968]}}, {"type": "Feature", "properties": {"norad_id": 30532, "name": "FENGYUN 1C DEB", "group": "fengyun-1c-debris", "lat": 57.13209527972968, "lon": -146.8039669584163, "alt_km": 526.6842658855612, "timestamp": "2025-12-02T06:27:53.290541+00:00", "meta": {"OBJECT_NAME": "FENGYUN 1C DEB", "OBJECT_ID": "1999-025AJW", "EPOCH": "2025-12-01T03:01:30.719136", "MEAN_MOTION": 15.17377563, "ECCENTRICITY": 0.002936, "INCLINATION": 96.9638, "RA_OF_ASC_NODE": 21.24, "ARG_OF_PERICENTER": 295.07, "MEAN_ANOMALY": 64.7488, "EPHEMERIS_TYPE": 0, "CLASSIFICATION_TYPE": "U", "NORAD_CAT_ID": 30532, "ELEMENT_SET_NO": 999, "REV_AT_EPOCH": 97511, "BSTAR": 0.010230417, "MEAN_MOTION_DOT": 0.0021221, "MEAN_MOTION_DDOT": 0}, "tle": {"line1": "1 30532U 99025AJW 25335.12604999  .00212210  00000+0  10230-1 0  9990", "line2": "2 30532  96.9638  21.2400 0029360 295.0700  64.7488 15.17377563975113"}}, "geometry": {"type": "Point", "coordinates": [-146.8039669584163, 57.13209527972968]}}, {"type": "Feature", "properties": {"norad_id": 30533, "name": "FENGYUN 1C DEB", "group": "fengyun-1c-debris", "lat": 32.466941078292926, "lon": 98.83603703511099, "alt_km": 763.4069162068463, "timestamp": "2025-12-02T06:27:53.290574+00:00", "meta": {"OBJECT_NAME": "FENGYUN 1C DEB", "OBJECT_ID": "1999-025AJX", "EPOCH": "2025-12-01T07:18:59.051232", "MEAN_MOTION": 14.53198163, "ECCENTRICITY": 0.0084363, "INCLINATION": 98.8336, "RA_OF_ASC_NODE": 103.4985, "ARG_OF_PERICENTER": 183.3496, "MEAN_ANOMALY": 207.1407, "EPHEMERIS_TYPE": 0, "CLASSIFICATION_TYPE": "U", "NORAD_CAT_ID": 30533, "ELEMENT_SET_NO": 999, "REV_AT_EPOCH": 97655, "BSTAR": 0.005024, "MEAN_MOTION_DOT": 0.00021832, "MEAN_MOTION_DDOT": 0}, "tle": {"line1": "1 30533U 99025AJX 25335.30485013  .00021832  00000+0  50240-2 0  9999", "line2": "2 30533  98.8336 103.4985 0084363 183.3496 207.1407 14.53198163976555"}}, "geometry": {"type": "Point", "coordinates": [98.83603703511099, 32.466941078292926]}}, {"type": "Feature", "properties": {"norad_id": 30539, "name": "FENGYUN 1C DEB", "group": "fengyun-1c-debris", "lat": 51.166439193162375, "lon": -55.12788030078464, "alt_km": 723.0357440268726, "timestamp": "2025-12-02T06:27:53.290585+00:00", "meta": {"OBJECT_NAME": "FENGYUN 1C DEB", "OBJECT_ID": "1999-025AKD", "EPOCH": "2025-12-01T20:19:37.284384", "MEAN_MOTION": 14.55283673, "ECCENTRICITY": 0.0116107, "INCLINATION": 98.8782, "RA_OF_ASC_NODE": 315.62, "ARG_OF_PERICENTER": 309.1379, "MEAN_ANOMALY": 49.9541, "EPHEMERIS_TYPE": 0, "CLASSIFICATION_TYPE": "U", "NORAD_CAT_ID": 30539, "ELEMENT_SET_NO": 999, "REV_AT_EPOCH": 99207, "BSTAR": 0.00093568, "MEAN_MOTION_DOT": 4.382e-05, "MEAN_MOTION_DDOT": 0}, "tle": {"line1": "1 30539U 99025AKD 25335.84695931  .00004382  00000+0  93568-3 0  9998", "line2": "2 30539  98.8782 315.6200 0116107 309.1379  49.9541 14.55283673992072"}}, "geometry": {"type": "Point", "coordinates": [-55.12788030078464, 51.166439193162375]}}, {"type": "Feature", "properties": {"norad_id": 30540, "name": "FENGYUN 1C DEB", "group": "fengyun-1c-debris", "lat": 49.69130574126173, "lon": 73.74733843122615, "alt_km": 752.4352637983584, "timestamp": "2025-12-02T06:27:53.290595+00:00", "meta": {"OBJECT_NAME": "FENGYUN 1C DEB", "OBJECT_ID": "1999-025AKE", "EPOCH": "2025-12-01T13:32:46.644864", "MEAN_MOTION": 14.32079338, "ECCENTRICITY": 0.00526696, "INCLINATION": 98.8787, "RA_OF_ASC_NODE": 83.6444, "ARG_OF_PERICENTER": 95.4787, "MEAN_ANOMALY": 283.2708, "EPHEMERIS_TYPE": 0, "CLASSIFICATION_TYPE": "U", "NORAD_CAT_ID": 30540, "ELEMENT_SET_NO": 999, "REV_AT_EPOCH": 97126, "BSTAR": 0.0021456673, "MEAN_MOTION_DOT": 5.814e-05, "MEAN_MOTION_DDOT": 0}, "tle": {"line1": "1 30540U 99025AKE 25335.56442876  .00005814  00000+0  21457-2 0  9995", "line2": "2 30540  98.8787  83.6444 0052669  95.4787 283.2708 14.32079338971263"}}, "geometry": {"type": "Point", "coordinates": [73.74733843122615, 49.69130574126173]}}, {"type": "Feature", "properties": {"norad_id": 30541, "name": "FENGYUN 1C DEB", "group": "fengyun-1c-debris", "lat": 67.60020625108108, "lon": 1.1462496932105903, "alt_km": 799.2231459548693, "timestamp": "2025-12-02T06:27:53.290606+00:00", "meta": {"OBJECT_NAME": "FENGYUN 1C DEB", "OBJECT_ID": "1999-025AKF", "EPOCH": "2025-12-01T13:15:53.483904", "MEAN_MOTION": 14.2296194, "ECCENTRICITY": 0.00188587, "INCLINATION": 98.6962, "RA_OF_ASC_NODE": 22.2366, "ARG_OF_PERICENTER": 116.9856, "MEAN_ANOMALY": 243.3251, "EPHEMERIS_TYPE": 0, "CLASSIFICATION_TYPE": "U", "NORAD_CAT_ID": 30541, "ELEMENT_SET_NO": 999, "REV_AT_EPOCH": 97168, "BSTAR": 0.0011900685, "MEAN_MOTION_DOT": 2.64e-05, "MEAN_MOTION_DDOT": 0}, "tle": {"line1": "1 30541U 99025AKF 25335.55270236  .00002640  00000+0  11901-2 0  9991", "line2": "2 30541  98.6962  22.2366 0018858 116.9856 243.3251 14.22961940971681"}}, "geometry": {"type": "Point", "coordinates": [1.1462496932105903, 67.60020625108108]}}]}